CCSDS_OMM_VERS = 2.0
CREATION_DATE  = 
ORIGINATOR     = 

OBJECT_NAME    = STARLINK-36718
OBJECT_ID      = 2026-025Y
CENTER_NAME    = EARTH
REF_FRAME      = TEME
TIME_SYSTEM    = UTC
MEAN_ELEMENT_THEORY = SGP/SGP4

EPOCH          = 2026-02-21T22:00:01.999584
MEAN_MOTION    = 15.88084577
ECCENTRICITY   = .00016189
INCLINATION    = 97.2695
RA_OF_ASC_NODE = 163.7533
ARG_OF_PERICENTER = 89.0957
MEAN_ANOMALY   = 126.2779

EPHEMERIS_TYPE = 0
CLASSIFICATION_TYPE = U
NORAD_CAT_ID   = 67715
ELEMENT_SET_NO = 999
REV_AT_EPOCH   = 331
BSTAR          = -.68474874E-2
MEAN_MOTION_DOT = -.1624519E-1
MEAN_MOTION_DDOT = 0

CCSDS_OMM_VERS = 2.0
CREATION_DATE  = 
ORIGINATOR     = 

OBJECT_NAME    = STARLINK-36715
OBJECT_ID      = 2026-025Z
CENTER_NAME    = EARTH
REF_FRAME      = TEME
TIME_SYSTEM    = UTC
MEAN_ELEMENT_THEORY = SGP/SGP4

EPOCH          = 2026-02-21T22:00:01.999584
MEAN_MOTION    = 15.87758356
ECCENTRICITY   = .00017328
INCLINATION    = 97.2691
RA_OF_ASC_NODE = 163.7489
ARG_OF_PERICENTER = 75.8436
MEAN_ANOMALY   = 130.1863

EPHEMERIS_TYPE = 0
CLASSIFICATION_TYPE = U
NORAD_CAT_ID   = 67716
ELEMENT_SET_NO = 999
REV_AT_EPOCH   = 337
BSTAR          = -.69342381E-2
MEAN_MOTION_DOT = -.1619417E-1
MEAN_MOTION_DDOT = 0

CCSDS_OMM_VERS = 2.0
CREATION_DATE  = 
ORIGINATOR     = 

OBJECT_NAME    = STARLINK-36385
OBJECT_ID      = 2026-025AA
CENTER_NAME    = EARTH
REF_FRAME      = TEME
TIME_SYSTEM    = UTC
MEAN_ELEMENT_THEORY = SGP/SGP4

EPOCH          = 2026-02-21T22:00:01.999584
MEAN_MOTION    = 15.86770673
ECCENTRICITY   = .0001853
INCLINATION    = 97.2697
RA_OF_ASC_NODE = 163.7367
ARG_OF_PERICENTER = 76.7495
MEAN_ANOMALY   = 100.3457

EPHEMERIS_TYPE = 0
CLASSIFICATION_TYPE = U
NORAD_CAT_ID   = 67717
ELEMENT_SET_NO = 999
REV_AT_EPOCH   = 337
BSTAR          = -.74284223E-2
MEAN_MOTION_DOT = -.1648039E-1
MEAN_MOTION_DDOT = 0

CCSDS_OMM_VERS = 2.0
CREATION_DATE  = 
ORIGINATOR     = 

OBJECT_NAME    = CZ-2F DEB
OBJECT_ID      = 2026-024E
CENTER_NAME    = EARTH
REF_FRAME      = TEME
TIME_SYSTEM    = UTC
MEAN_ELEMENT_THEORY = SGP/SGP4

EPOCH          = 2026-02-21T12:34:04.197216
MEAN_MOTION    = 15.18401207
ECCENTRICITY   = .0254847
INCLINATION    = 50.3137
RA_OF_ASC_NODE = 97.7487
ARG_OF_PERICENTER = 216.4248
MEAN_ANOMALY   = 141.9134

EPHEMERIS_TYPE = 0
CLASSIFICATION_TYPE = U
NORAD_CAT_ID   = 67718
ELEMENT_SET_NO = 999
REV_AT_EPOCH   = 217
BSTAR          = .41028E-2
MEAN_MOTION_DOT = .21027E-2
MEAN_MOTION_DDOT = 0

CCSDS_OMM_VERS = 2.0
CREATION_DATE  = 
ORIGINATOR     = 

OBJECT_NAME    = CZ-2F DEB
OBJECT_ID      = 2026-024F
CENTER_NAME    = EARTH
REF_FRAME      = TEME
TIME_SYSTEM    = UTC
MEAN_ELEMENT_THEORY = SGP/SGP4

EPOCH          = 2026-02-21T21:43:59.101824
MEAN_MOTION    = 14.98666771
ECCENTRICITY   = .03286522
INCLINATION    = 49.7899
RA_OF_ASC_NODE = 97.6065
ARG_OF_PERICENTER = 208.2135
MEAN_ANOMALY   = 150.0657

EPHEMERIS_TYPE = 0
CLASSIFICATION_TYPE = U
NORAD_CAT_ID   = 67719
ELEMENT_SET_NO = 999
REV_AT_EPOCH   = 187
BSTAR          = .34696753E-2
MEAN_MOTION_DOT = .13722E-2
MEAN_MOTION_DDOT = 0

CCSDS_OMM_VERS = 2.0
CREATION_DATE  = 
ORIGINATOR     = 

OBJECT_NAME    = CZ-2F DEB
OBJECT_ID      = 2026-024G
CENTER_NAME    = EARTH
REF_FRAME      = TEME
TIME_SYSTEM    = UTC
MEAN_ELEMENT_THEORY = SGP/SGP4

EPOCH          = 2026-02-21T22:21:51.452928
MEAN_MOTION    = 14.96015573
ECCENTRICITY   = .03392702
INCLINATION    = 49.8298
RA_OF_ASC_NODE = 97.7827
ARG_OF_PERICENTER = 204.7792
MEAN_ANOMALY   = 153.6521

EPHEMERIS_TYPE = 0
CLASSIFICATION_TYPE = U
NORAD_CAT_ID   = 67720
ELEMENT_SET_NO = 999
REV_AT_EPOCH   = 219
BSTAR          = .35684847E-2
MEAN_MOTION_DOT = .137473E-2
MEAN_MOTION_DDOT = 0

CCSDS_OMM_VERS = 2.0
CREATION_DATE  = 
ORIGINATOR     = 

OBJECT_NAME    = STARLINK-36772
OBJECT_ID      = 2026-026A
CENTER_NAME    = EARTH
REF_FRAME      = TEME
TIME_SYSTEM    = UTC
MEAN_ELEMENT_THEORY = SGP/SGP4

EPOCH          = 2026-02-11T18:04:34.000320
MEAN_MOTION    = 16.07750770
ECCENTRICITY   = .00034
INCLINATION    = 97.2800
RA_OF_ASC_NODE = 95.5280
ARG_OF_PERICENTER = 259.0800
MEAN_ANOMALY   = 81.2200

EPHEMERIS_TYPE = 0
CLASSIFICATION_TYPE = U
NORAD_CAT_ID   = 67721
ELEMENT_SET_NO = 999
REV_AT_EPOCH   = 1
BSTAR          = 0
MEAN_MOTION_DOT = -.725E-5
MEAN_MOTION_DDOT = .2293429E-5

CCSDS_OMM_VERS = 2.0
CREATION_DATE  = 
ORIGINATOR     = 

OBJECT_NAME    = STARLINK-36796
OBJECT_ID      = 2026-026B
CENTER_NAME    = EARTH
REF_FRAME      = TEME
TIME_SYSTEM    = UTC
MEAN_ELEMENT_THEORY = SGP/SGP4

EPOCH          = 2026-02-21T22:00:01.999584
MEAN_MOTION    = 15.89200416
ECCENTRICITY   = .00014283
INCLINATION    = 97.2746
RA_OF_ASC_NODE = 106.7194
ARG_OF_PERICENTER = 88.8118
MEAN_ANOMALY   = 195.6987

EPHEMERIS_TYPE = 0
CLASSIFICATION_TYPE = U
NORAD_CAT_ID   = 67722
ELEMENT_SET_NO = 999
REV_AT_EPOCH   = 277
BSTAR          = -.64970694E-2
MEAN_MOTION_DOT = -.1629354E-1
MEAN_MOTION_DDOT = 0

CCSDS_OMM_VERS = 2.0
CREATION_DATE  = 
ORIGINATOR     = 

OBJECT_NAME    = STARLINK-36369
OBJECT_ID      = 2026-026C
CENTER_NAME    = EARTH
REF_FRAME      = TEME
TIME_SYSTEM    = UTC
MEAN_ELEMENT_THEORY = SGP/SGP4

EPOCH          = 2026-02-21T22:00:01.999584
MEAN_MOTION    = 15.89388824
ECCENTRICITY   = .0001501
INCLINATION    = 97.2743
RA_OF_ASC_NODE = 106.7214
ARG_OF_PERICENTER = 77.0408
MEAN_ANOMALY   = 211.7161

EPHEMERIS_TYPE = 0
CLASSIFICATION_TYPE = U
NORAD_CAT_ID   = 67723
ELEMENT_SET_NO = 999
REV_AT_EPOCH   = 277
BSTAR          = -.64386738E-2
MEAN_MOTION_DOT = -.1841165E-1
MEAN_MOTION_DDOT = .9094968E-3

CCSDS_OMM_VERS = 2.0
CREATION_DATE  = 
ORIGINATOR     = 

OBJECT_NAME    = STARLINK-36752
OBJECT_ID      = 2026-026D
CENTER_NAME    = EARTH
REF_FRAME      = TEME
TIME_SYSTEM    = UTC
MEAN_ELEMENT_THEORY = SGP/SGP4

EPOCH          = 2026-02-21T22:00:01.999584
MEAN_MOTION    = 15.89633614
ECCENTRICITY   = .00014455
INCLINATION    = 97.2746
RA_OF_ASC_NODE = 106.7247
ARG_OF_PERICENTER = 80.8695
MEAN_ANOMALY   = 213.3659

EPHEMERIS_TYPE = 0
CLASSIFICATION_TYPE = U
NORAD_CAT_ID   = 67724
ELEMENT_SET_NO = 999
REV_AT_EPOCH   = 277
BSTAR          = -.63320992E-2
MEAN_MOTION_DOT = -.1833031E-1
MEAN_MOTION_DDOT = .90418841E-3

CCSDS_OMM_VERS = 2.0
CREATION_DATE  = 
ORIGINATOR     = 

OBJECT_NAME    = STARLINK-36754
OBJECT_ID      = 2026-026E
CENTER_NAME    = EARTH
REF_FRAME      = TEME
TIME_SYSTEM    = UTC
MEAN_ELEMENT_THEORY = SGP/SGP4

EPOCH          = 2026-02-21T22:00:01.999584
MEAN_MOTION    = 15.89822123
ECCENTRICITY   = .00014239
INCLINATION    = 97.2742
RA_OF_ASC_NODE = 106.7258
ARG_OF_PERICENTER = 82.2336
MEAN_ANOMALY   = 216.3137

EPHEMERIS_TYPE = 0
CLASSIFICATION_TYPE = U
NORAD_CAT_ID   = 67725
ELEMENT_SET_NO = 999
REV_AT_EPOCH   = 277
BSTAR          = -.62628091E-2
MEAN_MOTION_DOT = -.1830179E-1
MEAN_MOTION_DDOT = .90324188E-3

CCSDS_OMM_VERS = 2.0
CREATION_DATE  = 
ORIGINATOR     = 

OBJECT_NAME    = STARLINK-36755
OBJECT_ID      = 2026-026F
CENTER_NAME    = EARTH
REF_FRAME      = TEME
TIME_SYSTEM    = UTC
MEAN_ELEMENT_THEORY = SGP/SGP4

EPOCH          = 2026-02-21T22:00:01.999584
MEAN_MOTION    = 15.90070707
ECCENTRICITY   = .00014139
INCLINATION    = 97.2736
RA_OF_ASC_NODE = 106.7276
ARG_OF_PERICENTER = 80.0106
MEAN_ANOMALY   = 223.9334

EPHEMERIS_TYPE = 0
CLASSIFICATION_TYPE = U
NORAD_CAT_ID   = 67726
ELEMENT_SET_NO = 999
REV_AT_EPOCH   = 277
BSTAR          = -.61956685E-2
MEAN_MOTION_DOT = -.1833231E-1
MEAN_MOTION_DDOT = .90827918E-3

CCSDS_OMM_VERS = 2.0
CREATION_DATE  = 
ORIGINATOR     = 

OBJECT_NAME    = STARLINK-36741
OBJECT_ID      = 2026-026G
CENTER_NAME    = EARTH
REF_FRAME      = TEME
TIME_SYSTEM    = UTC
MEAN_ELEMENT_THEORY = SGP/SGP4

EPOCH          = 2026-02-21T22:00:01.999584
MEAN_MOTION    = 15.90223464
ECCENTRICITY   = .0001401
INCLINATION    = 97.2729
RA_OF_ASC_NODE = 106.7290
ARG_OF_PERICENTER = 82.4438
MEAN_ANOMALY   = 225.0091

EPHEMERIS_TYPE = 0
CLASSIFICATION_TYPE = U
NORAD_CAT_ID   = 67727
ELEMENT_SET_NO = 999
REV_AT_EPOCH   = 277
BSTAR          = -.61442958E-2
MEAN_MOTION_DOT = -.1832052E-1
MEAN_MOTION_DDOT = .90856301E-3

CCSDS_OMM_VERS = 2.0
CREATION_DATE  = 
ORIGINATOR     = 

OBJECT_NAME    = STARLINK-36757
OBJECT_ID      = 2026-026H
CENTER_NAME    = EARTH
REF_FRAME      = TEME
TIME_SYSTEM    = UTC
MEAN_ELEMENT_THEORY = SGP/SGP4

EPOCH          = 2026-02-21T22:00:01.999584
MEAN_MOTION    = 15.90440027
ECCENTRICITY   = .00014015
INCLINATION    = 97.2727
RA_OF_ASC_NODE = 106.7306
ARG_OF_PERICENTER = 83.6042
MEAN_ANOMALY   = 228.6668

EPHEMERIS_TYPE = 0
CLASSIFICATION_TYPE = U
NORAD_CAT_ID   = 67728
ELEMENT_SET_NO = 999
REV_AT_EPOCH   = 277
BSTAR          = -.60719165E-2
MEAN_MOTION_DOT = -.1830345E-1
MEAN_MOTION_DDOT = .9089369E-3

CCSDS_OMM_VERS = 2.0
CREATION_DATE  = 
ORIGINATOR     = 

OBJECT_NAME    = STARLINK-36751
OBJECT_ID      = 2026-026J
CENTER_NAME    = EARTH
REF_FRAME      = TEME
TIME_SYSTEM    = UTC
MEAN_ELEMENT_THEORY = SGP/SGP4

EPOCH          = 2026-02-21T22:00:01.999584
MEAN_MOTION    = 15.90869148
ECCENTRICITY   = .00014308
INCLINATION    = 97.2722
RA_OF_ASC_NODE = 106.7348
ARG_OF_PERICENTER = 76.6742
MEAN_ANOMALY   = 245.3058

EPHEMERIS_TYPE = 0
CLASSIFICATION_TYPE = U
NORAD_CAT_ID   = 67729
ELEMENT_SET_NO = 999
REV_AT_EPOCH   = 277
BSTAR          = -.58879716E-2
MEAN_MOTION_DOT = -.1814015E-1
MEAN_MOTION_DDOT = .89770606E-3

